{
  "type": "FeatureCollection",
  "features": [
    {
      "type": "Feature",
      "properties": {
        "norad_id": 66477,
        "name": "STARLINK-35354",
        "group": "last-30-days",
        "lat": 31.201908649327425,
        "lon": 134.51931788696245,
        "alt_km": 410.5992280886412,
        "timestamp": "2025-12-08T19:31:47.635927+00:00",
        "meta_object_name": "STARLINK-35354",
        "meta_object_id": "2025-262X",
        "meta_epoch": "2025-12-08T06:00:02.999808",
        "meta_mean_motion": 15.50507775,
        "meta_eccentricity": 0.00011972,
        "meta_inclination": 43.0004,
        "meta_ra_of_asc_node": 97.2792,
        "meta_arg_of_pericenter": 248.3894,
        "meta_mean_anomaly": 250.6651,
        "meta_ephemeris_type": 0,
        "meta_classification_type": "U",
        "meta_norad_cat_id": 66477,
        "meta_element_set_no": 999,
        "meta_rev_at_epoch": 491,
        "meta_bstar": 0.0020732245,
        "meta_mean_motion_dot": 0.00122899,
        "meta_mean_motion_ddot": 0,
        "tle_line1": "1 66477U 25262X   25342.25003472  .00122899  00000+0  20732-2 0  9992",
        "tle_line2": "2 66477  43.0004  97.2792 0001197 248.3894 250.6651 15.50507775  4916"
      },
      "geometry": {
        "type": "Point",
        "coordinates": [
          134.51931788696245,
          31.201908649327425
        ]
      }
    },
    {
      "type": "Feature",
      "properties": {
        "norad_id": 66478,
        "name": "STARLINK-35283",
        "group": "last-30-days",
        "lat": 32.21573241936762,
        "lon": 136.5219824412202,
        "alt_km": 410.8583883449828,
        "timestamp": "2025-12-08T19:31:47.635936+00:00",
        "meta_object_name": "STARLINK-35283",
        "meta_object_id": "2025-262Y",
        "meta_epoch": "2025-12-08T06:00:02.999808",
        "meta_mean_motion": 15.50571245,
        "meta_eccentricity": 0.00014999,
        "meta_inclination": 43.0005,
        "meta_ra_of_asc_node": 97.2733,
        "meta_arg_of_pericenter": 262.5175,
        "meta_mean_anomaly": 238.5592,
        "meta_ephemeris_type": 0,
        "meta_classification_type": "U",
        "meta_norad_cat_id": 66478,
        "meta_element_set_no": 999,
        "meta_rev_at_epoch": 491,
        "meta_bstar": -0.00048010978,
        "meta_mean_motion_dot": -0.00028397,
        "meta_mean_motion_ddot": 0,
        "tle_line1": "1 66478U 25262Y   25342.25003472 -.00028397  00000+0 -48011-3 0  9994",
        "tle_line2": "2 66478  43.0005  97.2733 0001499 262.5175 238.5592 15.50571245  4910"
      },
      "geometry": {
        "type": "Point",
        "coordinates": [
          136.5219824412202,
          32.21573241936762
        ]
      }
    },
    {
      "type": "Feature",
      "properties": {
        "norad_id": 66479,
        "name": "STARLINK-35581",
        "group": "last-30-days",
        "lat": 30.281962445273866,
        "lon": 132.78674303894667,
        "alt_km": 410.9517352819803,
        "timestamp": "2025-12-08T19:31:47.635946+00:00",
        "meta_object_name": "STARLINK-35581",
        "meta_object_id": "2025-262Z",
        "meta_epoch": "2025-12-08T06:00:02.999808",
        "meta_mean_motion": 15.50631707,
        "meta_eccentricity": 0.00012065,
        "meta_inclination": 43.0004,
        "meta_ra_of_asc_node": 97.2831,
        "meta_arg_of_pericenter": 254.4472,
        "meta_mean_anomaly": 242.8023,
        "meta_ephemeris_type": 0,
        "meta_classification_type": "U",
        "meta_norad_cat_id": 66479,
        "meta_element_set_no": 999,
        "meta_rev_at_epoch": 491,
        "meta_bstar": -0.00090533397,
        "meta_mean_motion_dot": -0.00053192,
        "meta_mean_motion_ddot": 0,
        "tle_line1": "1 66479U 25262Z   25342.25003472 -.00053192  00000+0 -90533-3 0  9992",
        "tle_line2": "2 66479  43.0004  97.2831 0001206 254.4472 242.8023 15.50631707  4912"
      },
      "geometry": {
        "type": "Point",
        "coordinates": [
          132.78674303894667,
          30.281962445273866
        ]
      }
    },
    {
      "type": "Feature",
      "properties": {
        "norad_id": 66480,
        "name": "STARLINK-35670",
        "group": "last-30-days",
        "lat": 33.16304057999809,
        "lon": 138.49695029890012,
        "alt_km": 410.79732088427954,
        "timestamp": "2025-12-08T19:31:47.635955+00:00",
        "meta_object_name": "STARLINK-35670",
        "meta_object_id": "2025-262AA",
        "meta_epoch": "2025-12-08T06:00:02.999808",
        "meta_mean_motion": 15.5058074,
        "meta_eccentricity": 0.00015859,
        "meta_inclination": 43.0005,
        "meta_ra_of_asc_node": 97.2683,
        "meta_arg_of_pericenter": 261.8611,
        "meta_mean_anomaly": 241.1256,
        "meta_ephemeris_type": 0,
        "meta_classification_type": "U",
        "meta_norad_cat_id": 66480,
        "meta_element_set_no": 999,
        "meta_rev_at_epoch": 491,
        "meta_bstar": -0.00069858769,
        "meta_mean_motion_dot": -0.00041112,
        "meta_mean_motion_ddot": 0,
        "tle_line1": "1 66480U 25262AA  25342.25003472 -.00041112  00000+0 -69859-3 0  9990",
        "tle_line2": "2 66480  43.0005  97.2683 0001585 261.8611 241.1256 15.50580740  4917"
      },
      "geometry": {
        "type": "Point",
        "coordinates": [
          138.49695029890012,
          33.16304057999809
        ]
      }
    },
    {
      "type": "Feature",
      "properties": {
        "norad_id": 66481,
        "name": "STARLINK-35698",
        "group": "last-30-days",
        "lat": 34.08102032451771,
        "lon": 140.52094000291993,
        "alt_km": 410.6131552197294,
        "timestamp": "2025-12-08T19:31:47.635965+00:00",
        "meta_object_name": "STARLINK-35698",
        "meta_object_id": "2025-262AB",
        "meta_epoch": "2025-12-08T06:00:02.999808",
        "meta_mean_motion": 15.50560535,
        "meta_eccentricity": 0.00016562,
        "meta_inclination": 43.0005,
        "meta_ra_of_asc_node": 97.2637,
        "meta_arg_of_pericenter": 265.8248,
        "meta_mean_anomaly": 239.0846,
        "meta_ephemeris_type": 0,
        "meta_classification_type": "U",
        "meta_norad_cat_id": 66481,
        "meta_element_set_no": 999,
        "meta_rev_at_epoch": 491,
        "meta_bstar": -0.00013822976,
        "meta_mean_motion_dot": -8.437e-05,
        "meta_mean_motion_ddot": 0,
        "tle_line1": "1 66481U 25262AB  25342.25003472 -.00008437  00000+0 -13823-3 0  9994",
        "tle_line2": "2 66481  43.0005  97.2637 0001656 265.8248 239.0846 15.50560535  4917"
      },
      "geometry": {
        "type": "Point",
        "coordinates": [
          140.52094000291993,
          34.08102032451771
        ]
      }
    },
    {
      "type": "Feature",
      "properties": {
        "norad_id": 66482,
        "name": "STARLINK-35648",
        "group": "last-30-days",
        "lat": 34.964012214686434,
        "lon": 142.58619135742958,
        "alt_km": 410.3387412903048,
        "timestamp": "2025-12-08T19:31:47.635974+00:00",
        "meta_object_name": "STARLINK-35648",
        "meta_object_id": "2025-262AC",
        "meta_epoch": "2025-12-08T06:00:02.999808",
        "meta_mean_motion": 15.50551764,
        "meta_eccentricity": 0.00014596,
        "meta_inclination": 43.0004,
        "meta_ra_of_asc_node": 97.2588,
        "meta_arg_of_pericenter": 264.7905,
        "meta_mean_anomaly": 242.0321,
        "meta_ephemeris_type": 0,
        "meta_classification_type": "U",
        "meta_norad_cat_id": 66482,
        "meta_element_set_no": 999,
        "meta_rev_at_epoch": 476,
        "meta_bstar": 0.00023256692,
        "meta_mean_motion_dot": 0.00013312,
        "meta_mean_motion_ddot": 0,
        "tle_line1": "1 66482U 25262AC  25342.25003472  .00013312  00000+0  23257-3 0  9993",
        "tle_line2": "2 66482  43.0004  97.2588 0001459 264.7905 242.0321 15.50551764  4760"
      },
      "geometry": {
        "type": "Point",
        "coordinates": [
          142.58619135742958,
          34.964012214686434
        ]
      }
    },
    {
      "type": "Feature",
      "properties": {
        "norad_id": 66483,
        "name": "STARLINK-35654",
        "group": "last-30-days",
        "lat": 35.8091756727309,
        "lon": 144.6891145854152,
        "alt_km": 410.3817196051623,
        "timestamp": "2025-12-08T19:31:47.635983+00:00",
        "meta_object_name": "STARLINK-35654",
        "meta_object_id": "2025-262AD",
        "meta_epoch": "2025-12-08T06:00:02.999808",
        "meta_mean_motion": 15.50567701,
        "meta_eccentricity": 0.00015912,
        "meta_inclination": 43.0006,
        "meta_ra_of_asc_node": 97.2531,
        "meta_arg_of_pericenter": 263.324,
        "meta_mean_anomaly": 245.4178,
        "meta_ephemeris_type": 0,
        "meta_classification_type": "U",
        "meta_norad_cat_id": 66483,
        "meta_element_set_no": 999,
        "meta_rev_at_epoch": 491,
        "meta_bstar": -0.00033769018,
        "meta_mean_motion_dot": -0.00020094,
        "meta_mean_motion_ddot": 0,
        "tle_line1": "1 66483U 25262AD  25342.25003472 -.00020094  00000+0 -33769-3 0  9990",
        "tle_line2": "2 66483  43.0006  97.2531 0001591 263.3240 245.4178 15.50567701  4917"
      },
      "geometry": {
        "type": "Point",
        "coordinates": [
          144.6891145854152,
          35.8091756727309
        ]
      }
    }
  ]
}